ONEWEB-0698             
1 61604U 24188L   26162.63297014 -.00000511  00000+0 -14780-2 0  9999
2 61604  87.8889  22.1868 0000699 104.8064 255.3141 13.11414960 83744
ONEWEB-0699             
1 61605U 24188M   26162.64142678  .00000716  00000+0  20160-2 0  9990
2 61605  87.8835  37.3706 0001453 102.1867 257.9423 13.10372914 82589
ONEWEB-0700             
1 61606U 24188N   26162.64308500  .00000735  00000+0  20698-2 0  9996
2 61606  87.8857  37.2784 0001823 104.1843 255.9487 13.10372801 82578
ONEWEB-0701             
1 61607U 24188P   26162.65967264  .00000050  00000+0  10717-3 0  9998
2 61607  87.8837  37.3662 0001419 109.2223 250.9058 13.10369523 82589
ONEWEB-0702             
1 61608U 24188Q   26162.67877133  .00000586  00000+0  16167-2 0  9994
2 61608  87.8908  22.0825 0001807 117.3899 242.7413 13.11417927 83769
ONEWEB-0704             
1 61609U 24188R   26162.64806579  .00000562  00000+0  15729-2 0  9995
2 61609  87.8849  37.3575 0002017 114.9517 245.1820 13.10371382 82568
ONEWEB-0705             
1 61610U 24188S   26162.65304909 -.00000234  00000+0 -70666-3 0  9998
2 61610  87.8844  37.3621 0002548 100.5594 259.5821 13.10367234 74733
ONEWEB-0706             
1 61611U 24188T   26162.71446340  .00000665  00000+0  18693-2 0  9999
2 61611  87.8841  37.3555 0001948 100.4097 259.7250 13.10374466 82661
ONEWEB-0707             
1 61612U 24188U   26162.64474552  .00000652  00000+0  18313-2 0  9993
2 61612  87.8846  37.3629 0001869 100.6159 259.5179 13.10371988 82598
ONEWEB-0708             
1 61613U 24188V   26162.66299080 -.00000115  00000+0 -36685-3 0  9996
2 61613  87.8833  37.3781 0002329  85.8092 274.3301 13.10369019 82578
