OBJECT_NAME,OBJECT_ID,EPOCH,MEAN_MOTION,ECCENTRICITY,INCLINATION,RA_OF_ASC_NODE,ARG_OF_PERICENTER,MEAN_ANOMALY,EPHEMERIS_TYPE,CLASSIFICATION_TYPE,NORAD_CAT_ID,ELEMENT_SET_NO,REV_AT_EPOCH,BSTAR,MEAN_MOTION_DOT,MEAN_MOTION_DDOT
ONEWEB-0698,2024-188L,2026-06-11T15:11:28.620096,13.11414960,.0000699,87.8889,22.1868,104.8064,255.3141,0,U,61604,999,8374,-.1478E-2,-.511E-5,0
ONEWEB-0699,2024-188M,2026-06-11T15:23:39.273792,13.10372914,.0001453,87.8835,37.3706,102.1867,257.9423,0,U,61605,999,8258,.2016E-2,.716E-5,0
ONEWEB-0700,2024-188N,2026-06-11T15:26:02.544000,13.10372801,.0001823,87.8857,37.2784,104.1843,255.9487,0,U,61606,999,8257,.20698E-2,.735E-5,0
ONEWEB-0701,2024-188P,2026-06-11T15:49:55.716096,13.10369523,.0001419,87.8837,37.3662,109.2223,250.9058,0,U,61607,999,8258,.10717E-3,.5E-6,0
ONEWEB-0702,2024-188Q,2026-06-11T16:17:25.842912,13.11417927,.0001807,87.8908,22.0825,117.3899,242.7413,0,U,61608,999,8376,.16167E-2,.586E-5,0
ONEWEB-0704,2024-188R,2026-06-11T15:33:12.884256,13.10371382,.0002017,87.8849,37.3575,114.9517,245.1820,0,U,61609,999,8256,.15729E-2,.562E-5,0
ONEWEB-0705,2024-188S,2026-06-11T15:40:23.441376,13.10367234,.0002548,87.8844,37.3621,100.5594,259.5821,0,U,61610,999,7473,-.70666E-3,-.234E-5,0
ONEWEB-0706,2024-188T,2026-06-11T17:08:49.637760,13.10374466,.0001948,87.8841,37.3555,100.4097,259.7250,0,U,61611,999,8266,.18693E-2,.665E-5,0
ONEWEB-0707,2024-188U,2026-06-11T15:28:26.012928,13.10371988,.0001869,87.8846,37.3629,100.6159,259.5179,0,U,61612,999,8259,.18313E-2,.652E-5,0
ONEWEB-0708,2024-188V,2026-06-11T15:54:42.405120,13.10369019,.0002329,87.8833,37.3781,85.8092,274.3301,0,U,61613,999,8257,-.36685E-3,-.115E-5,0
